[{"OBJECT_NAME":"HAWK-10B","OBJECT_ID":"2024-149CF","EPOCH":"2026-03-09T22:24:07.674624","MEAN_MOTION":14.96175068,"ECCENTRICITY":0.00063882,"INCLINATION":97.6865,"RA_OF_ASC_NODE":146.0046,"ARG_OF_PERICENTER":71.247,"MEAN_ANOMALY":288.9444,"EPHEMERIS_TYPE":0,"CLASSIFICATION_TYPE":"U","NORAD_CAT_ID":60545,"ELEMENT_SET_NO":999,"REV_AT_EPOCH":8514,"BSTAR":0.00020768682,"MEAN_MOTION_DOT":2.283e-5,"MEAN_MOTION_DDOT":0},{"OBJECT_NAME":"STARLINK-32918","OBJECT_ID":"2025-037L","EPOCH":"2026-03-09T22:03:31.625856","MEAN_MOTION":14.98330356,"ECCENTRICITY":0.00027164,"INCLINATION":70.004,"RA_OF_ASC_NODE":353.9874,"ARG_OF_PERICENTER":250.6935,"MEAN_ANOMALY":109.3931,"EPHEMERIS_TYPE":0,"CLASSIFICATION_TYPE":"U","NORAD_CAT_ID":63087,"ELEMENT_SET_NO":999,"REV_AT_EPOCH":5872,"BSTAR":0.00049256549,"MEAN_MOTION_DOT":5.789e-5,"MEAN_MOTION_DDOT":0}]
